STARLINK-2071
1 27361C 21005N   21325.10086728  .00007831  00000-0  52474-3 0  3251
2 27361  53.0540 237.7638 0001566  71.9728   9.0393 15.06384950    14
